[{"OBJECT_NAME":"TIANMU-1 09","OBJECT_ID":"2023-101C","EPOCH":"2026-03-09T22:17:34.703232","MEAN_MOTION":15.29080822,"ECCENTRICITY":0.00049013,"INCLINATION":97.267,"RA_OF_ASC_NODE":121.1263,"ARG_OF_PERICENTER":139.4293,"MEAN_ANOMALY":220.7314,"EPHEMERIS_TYPE":0,"CLASSIFICATION_TYPE":"U","NORAD_CAT_ID":57401,"ELEMENT_SET_NO":999,"REV_AT_EPOCH":14647,"BSTAR":0.00030540035,"MEAN_MOTION_DOT":8.553e-5,"MEAN_MOTION_DDOT":0},{"OBJECT_NAME":"LUR-1","OBJECT_ID":"2024-149AQ","EPOCH":"2026-03-09T19:05:45.284064","MEAN_MOTION":15.28658648,"ECCENTRICITY":0.00027765,"INCLINATION":97.379,"RA_OF_ASC_NODE":148.4255,"ARG_OF_PERICENTER":309.1571,"MEAN_ANOMALY":50.9421,"EPHEMERIS_TYPE":0,"CLASSIFICATION_TYPE":"U","NORAD_CAT_ID":60506,"ELEMENT_SET_NO":999,"REV_AT_EPOCH":8678,"BSTAR":0.0003298462,"MEAN_MOTION_DOT":9.121e-5,"MEAN_MOTION_DDOT":0}]
